1 T0018U          25274.98761992  .00012218  00000-0  73115-2 0  9993
2 T0018  99.8135  11.8397 0052337 326.2849  33.4991 14.06512417298301
1 T0019U          25275.50334893  .00000154  00000-0  51169-3 0  9991
2 T0019  90.2523   4.7866 0053804 137.0872 223.4465 12.95756668276558
1 T0020U          25276.57903095  .00004642  00000-0  33830-2 0  9997
2 T0020  82.5347 222.6557 0021003  17.3617 342.8263 13.95830211297170
1 T0021U          25275.12983953  .00000432  00000-0  22385-2 0  9995
2 T0021  82.7162 229.3884 0053408 248.9491 110.5886 12.65772453270004
1 T0022U          25275.32367728  .00003227  00000-0  10283-1 0  9992
2 T0022 100.0559 136.4016 0534587 231.9948 123.1716 12.63626765266712
1 T0023U          25256.61189929  .00000092  00000-0  75761-3 0  9990
2 T0023  73.6425  20.0280 0024031 191.1852 168.8663 12.45665933263499
1 T0024U          25273.50337789 -.00000050  00000-0  29798-3 0  9991
2 T0024  51.9824 349.3150 0000291 142.9024 217.1863 12.62470107269663
1 T0025U          25275.65002555  .00005636  00000-0  25086-2 0  9999
2 T0025  98.5780 236.9579 0074014 282.2325  77.0571 14.21786762302643
1 T0026U          25275.06372912  .00000577  00000-0  69059-2 0  9999
2 T0026 103.3420  30.2641 0383768  60.2008 303.6613 11.91895489254301
1 T0027U          25273.96005083 -.00001410  00000-0 -15204-1 0  9990
2 T0027 100.9013 172.4949 0514048 276.6725  77.6081 11.80139892251377
1 T0029U          25275.56891521  .00001842  00000-0  13397-2 0  9999
2 T0029  82.5246 217.1652 0005503 338.1374  21.9557 13.95778706296959
1 T0030U          25269.56049497 -.00000210  00000-0 -70024-3 0  9992
2 T0030  90.2676  15.1253 0035506 262.5670  97.1418 13.01929794277022
1 T0031U          25267.55912740 -.00000050  00000-0 -19014-3 0  9994
2 T0031  90.2609  14.5698 0007508 314.5358  45.5151 13.00085288276184
