{
  "timestamp": "2025-10-04T12:28:05.039749",
  "data": [
    {
      "OBJECT_NAME": "UNKNOWN",
      "OBJECT_ID": "",
      "EPOCH": "2025-10-01T23:42:10.361088",
      "MEAN_MOTION": 14.06512417,
      "ECCENTRICITY": 0.00523375,
      "INCLINATION": 99.8135,
      "RA_OF_ASC_NODE": 11.8397,
      "ARG_OF_PERICENTER": 326.2849,
      "MEAN_ANOMALY": 33.4991,
      "EPHEMERIS_TYPE": 0,
      "CLASSIFICATION_TYPE": "U",
      "NORAD_CAT_ID": 270018,
      "ELEMENT_SET_NO": 999,
      "REV_AT_EPOCH": 29830,
      "BSTAR": 0.0073114535,
      "MEAN_MOTION_DOT": 0.00012218,
      "MEAN_MOTION_DDOT": 0
    },
    {
      "OBJECT_NAME": "UNKNOWN",
      "OBJECT_ID": "",
      "EPOCH": "2025-10-02T12:04:49.347552",
      "MEAN_MOTION": 12.95756668,
      "ECCENTRICITY": 0.00538039,
      "INCLINATION": 90.2523,
      "RA_OF_ASC_NODE": 4.7866,
      "ARG_OF_PERICENTER": 137.0872,
      "MEAN_ANOMALY": 223.4465,
      "EPHEMERIS_TYPE": 0,
      "CLASSIFICATION_TYPE": "U",
      "NORAD_CAT_ID": 270019,
      "ELEMENT_SET_NO": 999,
      "REV_AT_EPOCH": 27655,
      "BSTAR": 0.0005116935,
      "MEAN_MOTION_DOT": 1.54e-6,
      "MEAN_MOTION_DDOT": 0
    },
    {
      "OBJECT_NAME": "UNKNOWN",
      "OBJECT_ID": "",
      "EPOCH": "2025-10-03T13:53:48.274080",
      "MEAN_MOTION": 13.95830211,
      "ECCENTRICITY": 0.00210031,
      "INCLINATION": 82.5347,
      "RA_OF_ASC_NODE": 222.6557,
      "ARG_OF_PERICENTER": 17.3617,
      "MEAN_ANOMALY": 342.8263,
      "EPHEMERIS_TYPE": 0,
      "CLASSIFICATION_TYPE": "U",
      "NORAD_CAT_ID": 270020,
      "ELEMENT_SET_NO": 999,
      "REV_AT_EPOCH": 29717,
      "BSTAR": 0.0033829588,
      "MEAN_MOTION_DOT": 4.642e-5,
      "MEAN_MOTION_DDOT": 0
    },
    {
      "OBJECT_NAME": "UNKNOWN",
      "OBJECT_ID": "",
      "EPOCH": "2025-10-02T03:06:58.135392",
      "MEAN_MOTION": 12.65772453,
      "ECCENTRICITY": 0.00534081,
      "INCLINATION": 82.7162,
      "RA_OF_ASC_NODE": 229.3884,
      "ARG_OF_PERICENTER": 248.9491,
      "MEAN_ANOMALY": 110.5886,
      "EPHEMERIS_TYPE": 0,
      "CLASSIFICATION_TYPE": "U",
      "NORAD_CAT_ID": 270021,
      "ELEMENT_SET_NO": 999,
      "REV_AT_EPOCH": 27000,
      "BSTAR": 0.0022385191,
      "MEAN_MOTION_DOT": 4.32e-6,
      "MEAN_MOTION_DDOT": 0
    },
    {
      "OBJECT_NAME": "UNKNOWN",
      "OBJECT_ID": "",
      "EPOCH": "2025-10-02T07:46:05.716992",
      "MEAN_MOTION": 12.63626765,
      "ECCENTRICITY": 0.05345868,
      "INCLINATION": 100.0559,
      "RA_OF_ASC_NODE": 136.4016,
      "ARG_OF_PERICENTER": 231.9948,
      "MEAN_ANOMALY": 123.1716,
      "EPHEMERIS_TYPE": 0,
      "CLASSIFICATION_TYPE": "U",
      "NORAD_CAT_ID": 270022,
      "ELEMENT_SET_NO": 999,
      "REV_AT_EPOCH": 26671,
      "BSTAR": 0.010283312,
      "MEAN_MOTION_DOT": 3.227e-5,
      "MEAN_MOTION_DDOT": 0
    },
    {
      "OBJECT_NAME": "UNKNOWN",
      "OBJECT_ID": "",
      "EPOCH": "2025-09-13T14:41:08.098656",
      "MEAN_MOTION": 12.45665933,
      "ECCENTRICITY": 0.00240308,
      "INCLINATION": 73.6425,
      "RA_OF_ASC_NODE": 20.028,
      "ARG_OF_PERICENTER": 191.1852,
      "MEAN_ANOMALY": 168.8663,
      "EPHEMERIS_TYPE": 0,
      "CLASSIFICATION_TYPE": "U",
      "NORAD_CAT_ID": 270023,
      "ELEMENT_SET_NO": 999,
      "REV_AT_EPOCH": 26349,
      "BSTAR": 0.00075760844,
      "MEAN_MOTION_DOT": 9.2e-7,
      "MEAN_MOTION_DDOT": 0
    },
    {
      "OBJECT_NAME": "UNKNOWN",
      "OBJECT_ID": "",
      "EPOCH": "2025-09-30T12:04:51.849696",
      "MEAN_MOTION": 12.62470107,
      "ECCENTRICITY": 2.914e-5,
      "INCLINATION": 51.9824,
      "RA_OF_ASC_NODE": 349.315,
      "ARG_OF_PERICENTER": 142.9024,
      "MEAN_ANOMALY": 217.1863,
      "EPHEMERIS_TYPE": 0,
      "CLASSIFICATION_TYPE": "U",
      "NORAD_CAT_ID": 270024,
      "ELEMENT_SET_NO": 999,
      "REV_AT_EPOCH": 26966,
      "BSTAR": 0.00029797925,
      "MEAN_MOTION_DOT": -5e-7,
      "MEAN_MOTION_DDOT": 0
    },
    {
      "OBJECT_NAME": "UNKNOWN",
      "OBJECT_ID": "",
      "EPOCH": "2025-10-02T15:36:02.207520",
      "MEAN_MOTION": 14.21786762,
      "ECCENTRICITY": 0.00740141,
      "INCLINATION": 98.578,
      "RA_OF_ASC_NODE": 236.9579,
      "ARG_OF_PERICENTER": 282.2325,
      "MEAN_ANOMALY": 77.0571,
      "EPHEMERIS_TYPE": 0,
      "CLASSIFICATION_TYPE": "U",
      "NORAD_CAT_ID": 270025,
      "ELEMENT_SET_NO": 999,
      "REV_AT_EPOCH": 30264,
      "BSTAR": 0.0025086265,
      "MEAN_MOTION_DOT": 5.636e-5,
      "MEAN_MOTION_DDOT": 0
    },
    {
      "OBJECT_NAME": "UNKNOWN",
      "OBJECT_ID": "",
      "EPOCH": "2025-10-02T01:31:46.195968",
      "MEAN_MOTION": 11.91895489,
      "ECCENTRICITY": 0.03837677,
      "INCLINATION": 103.342,
      "RA_OF_ASC_NODE": 30.2641,
      "ARG_OF_PERICENTER": 60.2008,
      "MEAN_ANOMALY": 303.6613,
      "EPHEMERIS_TYPE": 0,
      "CLASSIFICATION_TYPE": "U",
      "NORAD_CAT_ID": 270026,
      "ELEMENT_SET_NO": 999,
      "REV_AT_EPOCH": 25430,
      "BSTAR": 0.006905888,
      "MEAN_MOTION_DOT": 5.77e-6,
      "MEAN_MOTION_DDOT": 0
    },
    {
      "OBJECT_NAME": "UNKNOWN",
      "OBJECT_ID": "",
      "EPOCH": "2025-09-30T23:02:28.391712",
      "MEAN_MOTION": 11.80139892,
      "ECCENTRICITY": 0.05140479,
      "INCLINATION": 100.9013,
      "RA_OF_ASC_NODE": 172.4949,
      "ARG_OF_PERICENTER": 276.6725,
      "MEAN_ANOMALY": 77.6081,
      "EPHEMERIS_TYPE": 0,
      "CLASSIFICATION_TYPE": "U",
      "NORAD_CAT_ID": 270027,
      "ELEMENT_SET_NO": 999,
      "REV_AT_EPOCH": 25137,
      "BSTAR": -0.015203966,
      "MEAN_MOTION_DOT": -1.41e-5,
      "MEAN_MOTION_DDOT": 0
    },
    {
      "OBJECT_NAME": "UNKNOWN",
      "OBJECT_ID": "",
      "EPOCH": "2025-10-02T13:39:14.274144",
      "MEAN_MOTION": 13.95778706,
      "ECCENTRICITY": 0.00055032,
      "INCLINATION": 82.5246,
      "RA_OF_ASC_NODE": 217.1652,
      "ARG_OF_PERICENTER": 338.1374,
      "MEAN_ANOMALY": 21.9557,
      "EPHEMERIS_TYPE": 0,
      "CLASSIFICATION_TYPE": "U",
      "NORAD_CAT_ID": 270029,
      "ELEMENT_SET_NO": 999,
      "REV_AT_EPOCH": 29695,
      "BSTAR": 0.0013396783,
      "MEAN_MOTION_DOT": 1.842e-5,
      "MEAN_MOTION_DDOT": 0
    },
    {
      "OBJECT_NAME": "UNKNOWN",
      "OBJECT_ID": "",
      "EPOCH": "2025-09-26T13:27:06.765408",
      "MEAN_MOTION": 13.01929794,
      "ECCENTRICITY": 0.00355061,
      "INCLINATION": 90.2676,
      "RA_OF_ASC_NODE": 15.1253,
      "ARG_OF_PERICENTER": 262.567,
      "MEAN_ANOMALY": 97.1418,
      "EPHEMERIS_TYPE": 0,
      "CLASSIFICATION_TYPE": "U",
      "NORAD_CAT_ID": 270030,
      "ELEMENT_SET_NO": 999,
      "REV_AT_EPOCH": 27702,
      "BSTAR": -0.00070024014,
      "MEAN_MOTION_DOT": -2.1e-6,
      "MEAN_MOTION_DDOT": 0
    },
    {
      "OBJECT_NAME": "UNKNOWN",
      "OBJECT_ID": "",
      "EPOCH": "2025-09-24T13:25:08.607360",
      "MEAN_MOTION": 13.00085288,
      "ECCENTRICITY": 0.00075076,
      "INCLINATION": 90.2609,
      "RA_OF_ASC_NODE": 14.5698,
      "ARG_OF_PERICENTER": 314.5358,
      "MEAN_ANOMALY": 45.5151,
      "EPHEMERIS_TYPE": 0,
      "CLASSIFICATION_TYPE": "U",
      "NORAD_CAT_ID": 270031,
      "ELEMENT_SET_NO": 999,
      "REV_AT_EPOCH": 27618,
      "BSTAR": -0.00019014209,
      "MEAN_MOTION_DOT": -5e-7,
      "MEAN_MOTION_DDOT": 0
    }
  ]
}
